OBJECT_NAME,OBJECT_ID,EPOCH,MEAN_MOTION,ECCENTRICITY,INCLINATION,RA_OF_ASC_NODE,ARG_OF_PERICENTER,MEAN_ANOMALY,EPHEMERIS_TYPE,CLASSIFICATION_TYPE,NORAD_CAT_ID,ELEMENT_SET_NO,REV_AT_EPOCH,BSTAR,MEAN_MOTION_DOT,MEAN_MOTION_DDOT
CUTE-1 (CO-55),2003-031E,2026-06-18T22:24:46.574496,14.24336606,.00096567,98.6735,178.4708,172.9759,187.1557,0,U,27844,999,19192,.10965551E-3,.21E-5,0
CUBESAT XI-IV (CO-57),2003-031J,2026-06-18T22:09:25.021728,14.23621597,.00091404,98.6765,178.1715,191.7752,168.3214,0,U,27848,999,19162,.94753245E-4,.172E-5,0
CUBESAT XI-V,2005-043F,2026-06-18T23:10:08.118336,14.72635479,.00137711,98.2987,325.6244,194.9475,165.1327,0,U,28895,999,10201,.17622937E-3,.1071E-4,0
CUTE-1.7+APD II (CO-65),2008-021C,2026-06-18T21:44:41.593344,15.09464113,.00095766,97.8275,151.3603,33.3397,326.8433,0,U,32785,999,98545,.27890163E-3,.4403E-4,0
CANX-2,2008-021H,2026-06-17T21:16:22.678176,15.05623552,.00114189,97.8640,148.6774,48.7586,311.4622,0,U,32790,999,98491,.25994567E-3,.369E-4,0
SEEDS II (CO-66),2008-021J,2026-06-18T10:35:22.532928,15.32786684,.000089,97.7517,167.3987,357.5135,2.6101,0,U,32791,999,98748,.44622E-3,.14056E-3,0
SWISSCUBE,2009-051B,2026-06-18T17:48:51.325344,14.62484142,.00060633,98.4034,77.6577,197.6452,162.4539,0,U,35932,999,88938,.15676708E-3,.745E-5,0
BEESAT-1,2009-051C,2026-06-18T16:25:02.060832,14.61722602,.00043093,98.3962,77.2309,211.2919,148.8026,0,U,35933,999,88940,.13739253E-3,.636E-5,0
ITUPSAT1,2009-051E,2026-06-18T04:43:11.614080,14.60442029,.00062858,98.4047,75.9267,230.1057,129.9590,0,U,35935,999,88888,.13197175E-3,.591E-5,0
TISAT 1,2010-035E,2026-06-18T07:01:54.736032,15.31742601,.0001545,98.0713,115.9399,166.4985,193.6296,0,U,36799,999,86787,.50955E-3,.15546E-3,0
AEROCUBE 4.5A,2012-048K,2026-06-18T21:58:14.778048,15.97795039,.00193454,64.6226,20.5437,228.9125,131.0369,0,U,38767,999,37293,.96139702E-3,.445345E-2,.89683897E-4
STRAND-1,2013-009E,2026-06-18T17:26:46.828896,14.37163972,.00078037,98.3923,349.9234,220.1282,139.9329,0,U,39090,999,69728,.7960175E-4,.194E-5,0
BRITE-AUSTRIA,2013-009F,2026-06-18T17:46:16.733280,14.36542637,.00092024,98.3995,349.1376,231.3134,128.7230,0,U,39091,999,69727,.56762793E-4,.124E-5,0
NEE-01 PEGASO,2013-018B,2026-06-18T20:57:40.464864,14.93666854,.00132722,98.1227,314.0788,153.7980,206.3913,0,U,39151,999,71095,.23282949E-3,.2403E-4,0
POPACS 2,2013-055E,2026-06-18T15:39:57.370176,14.91243644,.04167837,80.9906,142.5146,189.0650,170.2883,0,U,39269,999,66343,.20498256E-3,.12134E-3,0
POPACS 3,2013-055F,2026-06-18T21:44:37.675968,14.56148407,.05520012,81.0000,227.3242,64.7663,300.9692,0,U,39270,999,63880,.18199673E-3,.775E-4,0
ZACUBE-1 (TSHEPISOSAT),2013-066B,2026-06-18T22:34:07.032288,15.01196295,.00410284,97.8075,132.2864,241.6550,118.0533,0,U,39417,999,68099,.17989195E-3,.2284E-4,0
WNISAT-1,2013-066H,2026-06-18T22:14:31.467840,14.58064839,.01620638,97.7204,318.9595,226.0739,132.6992,0,U,39423,999,66698,.14047339E-3,.723E-5,0
TRITON-1,2013-066M,2026-06-18T23:36:49.703904,14.81712155,.00885696,97.8249,79.7505,227.9607,131.4045,0,U,39427,999,67435,.22153716E-3,.181E-4,0
GOMX-1,2013-066Q,2026-06-18T22:57:11.828160,14.69466703,.01301464,97.6474,10.3072,71.8990,289.6342,0,U,39430,999,67017,.25582182E-3,.1676E-4,0
CUBEBUG-2 (LO-74),2013-066AA,2026-06-18T19:18:56.098944,14.93773469,.00582932,97.8910,118.7896,23.8630,336.5272,0,U,39440,999,67723,.36474665E-3,.3935E-4,0
NEE-02 KRYSAOR,2013-066AB,2026-06-18T18:10:28.789824,14.86623653,.00675967,97.8893,108.9606,65.1877,295.6349,0,U,39441,999,67643,.20288616E-3,.1818E-4,0
FUNCUBE-1 (AO-73),2013-066AE,2026-06-18T21:54:11.978496,15.09506452,.0035784,97.8280,141.3944,194.7997,165.2187,0,U,39444,999,67992,.2951225E-3,.4732E-4,0
UWE-3,2013-066AG,2026-06-18T14:51:46.986912,14.97034048,.0047372,97.8699,125.7026,316.3669,43.3811,0,U,39446,999,67779,.31072148E-3,.3597E-4,0
BRITE-CA1 (TORONTO),2014-033L,2026-06-18T22:33:55.896192,14.72678821,.00772134,97.9742,298.8358,271.2984,87.9379,0,U,40020,999,64247,.93339856E-4,.569E-5,0
DUCHIFAT-1,2014-033M,2026-06-18T16:25:31.161216,15.64848252,.0002814,98.0447,229.0553,113.8680,246.2872,0,U,40021,999,65598,.89915901E-3,.88318E-3,0
NANOSATC-BR1,2014-033Q,2026-06-18T20:07:58.344672,15.31498913,.00045564,98.0716,202.3732,158.4480,201.6952,0,U,40024,999,65423,.42393199E-3,.12819E-3,0
QB50P1,2014-033R,2026-06-18T22:18:31.458528,15.18280964,.00080072,98.0963,181.1977,208.7804,151.2987,0,U,40025,999,65329,.30693446E-3,.622E-4,0
QB50P2,2014-033Y,2026-06-18T22:46:54.290208,15.15176502,.00081691,98.0753,166.9392,158.0702,202.0879,0,U,40032,999,65293,.31388959E-3,.582E-4,0
PERSEUS-M2,2014-033AD,2026-06-18T22:28:38.524800,14.95513400,.00105095,97.9965,120.5130,297.6941,62.3213,0,U,40037,999,65104,.12978637E-3,.1378E-4,0
